start=new Date('2022-05-08T00:00:00.000Z').valueOf();
sats=[{"CLASSIFICATION_TYPE":"U","REF_FRAME":"TEME","GP_ID":"202933050","ELEMENT_SET_NO":"999","NORAD_CAT_ID":"52111","LAUNCH_DATE":"2022-03-19","MEAN_MOTION":"15.57292554","APOAPSIS":"396.280","PERIAPSIS":"394.717","OBJECT_NAME":"STARLINK-3708","DECAY_DATE":null,"MEAN_MOTION_DDOT":"0.0000000000000","MEAN_ELEMENT_THEORY":"SGP4","TLE_LINE2":"2 52111  53.2173 259.0171 0001154  74.4212  47.4963 15.57292554  9051","SITE":"AFETR","INCLINATION":"53.2173","RA_OF_ASC_NODE":"259.0171","FILE":"3434162","OBJECT_ID":"2022-029Z","CENTER_NAME":"EARTH","MEAN_MOTION_DOT":"-0.00708159","ECCENTRICITY":"0.00011540","MEAN_ANOMALY":"47.4963","COUNTRY_CODE":"US","PERIOD":"92.468","TIME_SYSTEM":"UTC","EPOCH":"2022-05-07T20:00:01.000224","RCS_SIZE":"LARGE","REV_AT_EPOCH":"905","ARG_OF_PERICENTER":"74.4212","OBJECT_TYPE":"PAYLOAD","BSTAR":"-0.01040000000000","EPHEMERIS_TYPE":"0","SEMIMAJOR_AXIS":"6773.634","TLE_LINE1":"1 52111U 22029Z   22127.83334491 -.00708159  00000-0 -10400-1 0  9992"},{"GP_ID":"202933057","CLASSIFICATION_TYPE":"U","REF_FRAME":"TEME","NORAD_CAT_ID":"52112","ELEMENT_SET_NO":"999","APOAPSIS":"396.270","MEAN_MOTION":"15.57286859","LAUNCH_DATE":"2022-03-19","PERIAPSIS":"394.760","TLE_LINE2":"2 52112  53.2173 259.0011 0001115  84.4694  35.5231 15.57286859  9054","MEAN_MOTION_DDOT":"0.0000000000000","MEAN_ELEMENT_THEORY":"SGP4","OBJECT_NAME":"STARLINK-3734","DECAY_DATE":null,"SITE":"AFETR","RA_OF_ASC_NODE":"259.0011","INCLINATION":"53.2173","CENTER_NAME":"EARTH","OBJECT_ID":"2022-029AA","FILE":"3434162","COUNTRY_CODE":"US","MEAN_ANOMALY":"35.5231","ECCENTRICITY":"0.00011150","MEAN_MOTION_DOT":"-0.00708388","PERIOD":"92.469","TIME_SYSTEM":"UTC","EPOCH":"2022-05-07T20:00:01.000224","REV_AT_EPOCH":"905","RCS_SIZE":"LARGE","OBJECT_TYPE":"PAYLOAD","ARG_OF_PERICENTER":"84.4694","TLE_LINE1":"1 52112U 22029AA  22127.83334491 -.00708388  00000-0 -10406-1 0  9993","SEMIMAJOR_AXIS":"6773.650","EPHEMERIS_TYPE":"0","BSTAR":"-0.01040600000000"},{"REV_AT_EPOCH":"370","RCS_SIZE":"LARGE","ARG_OF_PERICENTER":"50.0192","OBJECT_TYPE":"PAYLOAD","EPHEMERIS_TYPE":"0","BSTAR":"-0.01029800000000","TLE_LINE1":"1 52113U 22029AB  22127.58334491 -.00711475  00000-0 -10298-1 0  9996","SEMIMAJOR_AXIS":"6772.492","CENTER_NAME":"EARTH","FILE":"3433971","OBJECT_ID":"2022-029AB","MEAN_MOTION_DOT":"-0.00711475","COUNTRY_CODE":"US","MEAN_ANOMALY":"110.8513","ECCENTRICITY":"0.00014920","PERIOD":"92.445","EPOCH":"2022-05-07T14:00:01.000224","TIME_SYSTEM":"UTC","DECAY_DATE":null,"OBJECT_NAME":"STARLINK-3736","TLE_LINE2":"2 52113  53.2175 260.2417 0001492  50.0192 110.8513 15.57686205  3706","MEAN_ELEMENT_THEORY":"SGP4","MEAN_MOTION_DDOT":"0.0000000000000","SITE":"AFETR","INCLINATION":"53.2175","RA_OF_ASC_NODE":"260.2417","CLASSIFICATION_TYPE":"U","REF_FRAME":"TEME","GP_ID":"202928538","NORAD_CAT_ID":"52113","ELEMENT_SET_NO":"999","MEAN_MOTION":"15.57686205","LAUNCH_DATE":"2022-03-19","APOAPSIS":"395.368","PERIAPSIS":"393.347"},{"SITE":"AFETR","OBJECT_NAME":"STARLINK-3737","DECAY_DATE":null,"MEAN_MOTION_DDOT":"0.0000000000000","MEAN_ELEMENT_THEORY":"SGP4","TLE_LINE2":"2 52114  53.2175 260.2170 0001399  55.6520 102.9906 15.57671897  3704","INCLINATION":"53.2175","RA_OF_ASC_NODE":"260.2170","ELEMENT_SET_NO":"999","NORAD_CAT_ID":"52114","CLASSIFICATION_TYPE":"U","REF_FRAME":"TEME","GP_ID":"202929045","PERIAPSIS":"393.451","LAUNCH_DATE":"2022-03-19","MEAN_MOTION":"15.57671897","APOAPSIS":"395.346","ARG_OF_PERICENTER":"55.6520","OBJECT_TYPE":"PAYLOAD","RCS_SIZE":"LARGE","REV_AT_EPOCH":"370","BSTAR":"-0.01030700000000","EPHEMERIS_TYPE":"0","SEMIMAJOR_AXIS":"6772.534","TLE_LINE1":"1 52114U 22029AC  22127.58334491 -.00711675  00000-0 -10307-1 0  9990","MEAN_MOTION_DOT":"-0.00711675","MEAN_ANOMALY":"102.9906","ECCENTRICITY":"0.00013990","COUNTRY_CODE":"US","FILE":"3433971","OBJECT_ID":"2022-029AC","CENTER_NAME":"EARTH","EPOCH":"2022-05-07T14:00:01.000224","TIME_SYSTEM":"UTC","PERIOD":"92.446"},{"MEAN_MOTION_DOT":"-0.00711457","ECCENTRICITY":"0.00014950","MEAN_ANOMALY":"111.7873","COUNTRY_CODE":"US","OBJECT_ID":"2022-029AD","FILE":"3433971","CENTER_NAME":"EARTH","TIME_SYSTEM":"UTC","EPOCH":"2022-05-07T14:00:01.000224","PERIOD":"92.444","ARG_OF_PERICENTER":"50.5682","OBJECT_TYPE":"PAYLOAD","RCS_SIZE":"LARGE","REV_AT_EPOCH":"370","BSTAR":"-0.01029400000000","EPHEMERIS_TYPE":"0","SEMIMAJOR_AXIS":"6772.465","TLE_LINE1":"1 52115U 22029AD  22127.58334491 -.00711457  00000-0 -10294-1 0  9994","ELEMENT_SET_NO":"999","NORAD_CAT_ID":"52115","CLASSIFICATION_TYPE":"U","REF_FRAME":"TEME","GP_ID":"202928623","PERIAPSIS":"393.317","LAUNCH_DATE":"2022-03-19","MEAN_MOTION":"15.57695767","APOAPSIS":"395.342","SITE":"AFETR","OBJECT_NAME":"STARLINK-3685","DECAY_DATE":null,"MEAN_MOTION_DDOT":"0.0000000000000","MEAN_ELEMENT_THEORY":"SGP4","TLE_LINE2":"2 52115  53.2175 260.2582 0001495  50.5682 111.7873 15.57695767  3705","INCLINATION":"53.2175","RA_OF_ASC_NODE":"260.2582"},{"OBJECT_TYPE":"PAYLOAD","ARG_OF_PERICENTER":"50.9396","REV_AT_EPOCH":"370","RCS_SIZE":"LARGE","TLE_LINE1":"1 52116U 22029AE  22127.58334491 -.00711609  00000-0 -10302-1 0  9994","SEMIMAJOR_AXIS":"6772.506","EPHEMERIS_TYPE":"0","BSTAR":"-0.01030200000000","COUNTRY_CODE":"US","ECCENTRICITY":"0.00014810","MEAN_ANOMALY":"109.1883","MEAN_MOTION_DOT":"-0.00711609","CENTER_NAME":"EARTH","OBJECT_ID":"2022-029AE","FILE":"3433971","TIME_SYSTEM":"UTC","EPOCH":"2022-05-07T14:00:01.000224","PERIOD":"92.445","SITE":"AFETR","TLE_LINE2":"2 52116  53.2175 260.2336 0001481  50.9396 109.1883 15.57681458  3708","MEAN_ELEMENT_THEORY":"SGP4","MEAN_MOTION_DDOT":"0.0000000000000","OBJECT_NAME":"STARLINK-3735","DECAY_DATE":null,"RA_OF_ASC_NODE":"260.2336","INCLINATION":"53.2175","NORAD_CAT_ID":"52116","ELEMENT_SET_NO":"999","GP_ID":"202929128","CLASSIFICATION_TYPE":"U","REF_FRAME":"TEME","PERIAPSIS":"393.368","APOAPSIS":"395.374","MEAN_MOTION":"15.57681458","LAUNCH_DATE":"2022-03-19"},{"CENTER_NAME":"EARTH","FILE":"3433971","OBJECT_ID":"2022-029AF","MEAN_MOTION_DOT":"-0.00711255","COUNTRY_CODE":"US","MEAN_ANOMALY":"114.1980","ECCENTRICITY":"0.00015280","PERIOD":"92.444","TIME_SYSTEM":"UTC","EPOCH":"2022-05-07T14:00:01.000224","REV_AT_EPOCH":"370","RCS_SIZE":"LARGE","ARG_OF_PERICENTER":"49.6423","OBJECT_TYPE":"PAYLOAD","EPHEMERIS_TYPE":"0","BSTAR":"-0.01028700000000","TLE_LINE1":"1 52117U 22029AF  22127.58334491 -.00711255  00000-0 -10287-1 0  9994","SEMIMAJOR_AXIS":"6772.437","REF_FRAME":"TEME","CLASSIFICATION_TYPE":"U","GP_ID":"202928876","NORAD_CAT_ID":"52117","ELEMENT_SET_NO":"999","MEAN_MOTION":"15.57705293","LAUNCH_DATE":"2022-03-19","APOAPSIS":"395.337","PERIAPSIS":"393.267","DECAY_DATE":null,"OBJECT_NAME":"STARLINK-3738","TLE_LINE2":"2 52117  53.2175 260.2747 0001528  49.6423 114.1980 15.57705293  3701","MEAN_ELEMENT_THEORY":"SGP4","MEAN_MOTION_DDOT":"0.0000000000000","SITE":"AFETR","INCLINATION":"53.2175","RA_OF_ASC_NODE":"260.2747"},{"PERIOD":"92.445","EPOCH":"2022-05-07T14:00:01.000224","TIME_SYSTEM":"UTC","CENTER_NAME":"EARTH","OBJECT_ID":"2022-029AG","FILE":"3433971","MEAN_MOTION_DOT":"-0.00711580","COUNTRY_CODE":"US","MEAN_ANOMALY":"106.3007","ECCENTRICITY":"0.00014210","EPHEMERIS_TYPE":"0","BSTAR":"-0.01029800000000","TLE_LINE1":"1 52118U 22029AG  22127.58334491 -.00711580  00000-0 -10298-1 0  9998","SEMIMAJOR_AXIS":"6772.478","REV_AT_EPOCH":"370","RCS_SIZE":"LARGE","ARG_OF_PERICENTER":"55.3123","OBJECT_TYPE":"PAYLOAD","MEAN_MOTION":"15.57691029","LAUNCH_DATE":"2022-03-19","APOAPSIS":"395.306","PERIAPSIS":"393.381","CLASSIFICATION_TYPE":"U","REF_FRAME":"TEME","GP_ID":"202928707","NORAD_CAT_ID":"52118","ELEMENT_SET_NO":"999","INCLINATION":"53.2175","RA_OF_ASC_NODE":"260.2501","OBJECT_NAME":"STARLINK-3743","DECAY_DATE":null,"TLE_LINE2":"2 52118  53.2175 260.2501 0001421  55.3123 106.3007 15.57691029  3707","MEAN_ELEMENT_THEORY":"SGP4","MEAN_MOTION_DDOT":"0.0000000000000","SITE":"AFETR"},{"DECAY_DATE":null,"OBJECT_NAME":"STARLINK-3558","TLE_LINE2":"2 52119  53.2175 260.2912 0001632  43.8428 121.4821 15.57714864  3703","MEAN_MOTION_DDOT":"0.0000000000000","MEAN_ELEMENT_THEORY":"SGP4","SITE":"AFETR","INCLINATION":"53.2175","RA_OF_ASC_NODE":"260.2912","CLASSIFICATION_TYPE":"U","REF_FRAME":"TEME","GP_ID":"202928961","NORAD_CAT_ID":"52119","ELEMENT_SET_NO":"999","MEAN_MOTION":"15.57714864","LAUNCH_DATE":"2022-03-19","APOAPSIS":"395.380","PERIAPSIS":"393.169","REV_AT_EPOCH":"370","RCS_SIZE":"LARGE","ARG_OF_PERICENTER":"43.8428","OBJECT_TYPE":"PAYLOAD","EPHEMERIS_TYPE":"0","BSTAR":"-0.01028300000000","TLE_LINE1":"1 52119U 22029AH  22127.58334491 -.00711257  00000-0 -10283-1 0  9994","SEMIMAJOR_AXIS":"6772.409","CENTER_NAME":"EARTH","OBJECT_ID":"2022-029AH","FILE":"3433971","MEAN_MOTION_DOT":"-0.00711257","COUNTRY_CODE":"US","MEAN_ANOMALY":"121.4821","ECCENTRICITY":"0.00016320","PERIOD":"92.443","EPOCH":"2022-05-07T14:00:01.000224","TIME_SYSTEM":"UTC"},{"MEAN_MOTION_DOT":"-0.00711449","COUNTRY_CODE":"US","MEAN_ANOMALY":"112.4990","ECCENTRICITY":"0.00014990","CENTER_NAME":"EARTH","OBJECT_ID":"2022-029AJ","FILE":"3433971","TIME_SYSTEM":"UTC","EPOCH":"2022-05-07T14:00:01.000224","PERIOD":"92.444","ARG_OF_PERICENTER":"50.5989","OBJECT_TYPE":"PAYLOAD","REV_AT_EPOCH":"370","RCS_SIZE":"LARGE","EPHEMERIS_TYPE":"0","BSTAR":"-0.01029200000000","TLE_LINE1":"1 52120U 22029AJ  22127.58334491 -.00711449  00000-0 -10292-1 0  9999","SEMIMAJOR_AXIS":"6772.451","NORAD_CAT_ID":"52120","ELEMENT_SET_NO":"999","CLASSIFICATION_TYPE":"U","REF_FRAME":"TEME","GP_ID":"202928790","PERIAPSIS":"393.301","MEAN_MOTION":"15.57700553","LAUNCH_DATE":"2022-03-19","APOAPSIS":"395.331","SITE":"AFETR","OBJECT_NAME":"STARLINK-3534","DECAY_DATE":null,"TLE_LINE2":"2 52120  53.2175 260.2666 0001499  50.5989 112.4990 15.57700553  3706","MEAN_ELEMENT_THEORY":"SGP4","MEAN_MOTION_DDOT":"0.0000000000000","INCLINATION":"53.2175","RA_OF_ASC_NODE":"260.2666"}];
